ONEWEB-0553             
1 56055U 23043K   24063.21537905 -.00000046  00000+0 -15332-3 0  9998
2 56055  87.9084  35.1486 0001631  97.4175 262.7141 13.16595258 49887
ONEWEB-0554             
1 56056U 23043L   24062.89873019  .00000063  00000+0  13001-3 0  9999
2 56056  87.9085  35.2302 0002613  82.6347 277.5081 13.16595392 48914
ONEWEB-0555             
1 56057U 23043M   24062.93672034  .00000065  00000+0  13583-3 0  9996
2 56057  87.9085  35.1970 0002041 105.3631 254.7726 13.16593293 48921
ONEWEB-0557             
1 56058U 23043N   24063.17895905 -.00000101  00000+0 -29856-3 0  9991
2 56058  87.9086  35.1747 0002561 107.5828 252.5583 13.16595255 49865
ONEWEB-0558             
1 56059U 23043P   24062.92161388  .00000059  00000+0  11115-3 0  9994
2 56059  87.9227  50.4248 0001754  69.3707 290.7615 13.21825263 47761
ONEWEB-0559             
1 56060U 23043Q   24062.91057550  .00000103  00000+0  21816-3 0  9999
2 56060  87.9227  50.4265 0002355  73.2173 286.9219 13.21824881 47774
ONEWEB-0566             
1 56061U 23043R   24063.20703469  .00000088  00000+0  18079-3 0  9999
2 56061  87.9225  50.3684 0001824  62.2084 297.9234 13.21827451 48705
ONEWEB-0568             
1 56062U 23043S   24063.42436593  .00000083  00000+0  18410-3 0  9999
2 56062  87.9084  35.0900 0001803  95.6831 264.4505 13.16595592 49913
